IRIDIUM 156             
1 43576U 18061H   26177.11758051  .00000215  00000+0  69735-4 0  9993
2 43576  86.3954  52.9949 0002005  85.3658 274.7767 14.34218486414653
IRIDIUM 164             
1 43577U 18061J   26177.16831571  .00000094  00000+0  26452-4 0  9992
2 43577  86.3955  53.0142 0002227  90.3170 269.8281 14.34218086414701
IRIDIUM 159             
1 43578U 18061K   26177.13660280  .00000018  00000+0 -78170-6 0  9990
2 43578  86.3947  52.9638 0002109  83.7170 276.4266 14.34217564414668
IRIDIUM 180             
1 43922U 19002A   26176.99656190 -.00000007  00000+0 -96550-5 0  9997
2 43922  86.3971 349.9142 0002135  89.3109 270.8332 14.34217299390255
IRIDIUM 176             
1 43923U 19002B   26177.19862669  .00000754  00000+0  11568-3 0  9992
2 43923  86.6093 349.7717 0002430  88.5506 271.5989 14.72225345400576
IRIDIUM 168             
1 43924U 19002C   26176.99021366  .00000080  00000+0  21599-4 0  9999
2 43924  86.3975 349.9941 0002230  90.5645 269.5806 14.34216504390230
IRIDIUM 173             
1 43925U 19002D   26177.18683980  .00000049  00000+0  10323-4 0  9996
2 43925  86.3972 349.8005 0002172  88.4137 271.7308 14.34217784390249
IRIDIUM 169             
1 43926U 19002E   26177.08582368  .00000243  00000+0  72913-4 0  9993
2 43926  86.4220  21.4722 0001690  81.8691 278.2698 14.38607186391509
IRIDIUM 172             
1 43927U 19002F   26177.18049536 -.00000001  00000+0 -74891-5 0  9992
2 43927  86.3969 349.8111 0002135  89.4892 270.6549 14.34216791390256
IRIDIUM 175             
1 43928U 19002G   26176.80156367  .00000294  00000+0  80753-4 0  9997
2 43928  86.4516 286.9198 0003606 156.1516 203.9853 14.43617140400220
IRIDIUM 171             
1 43929U 19002H   26176.95216323 -.00000001  00000+0 -72780-5 0  9993
2 43929  86.3979 350.2137 0001974  93.6650 266.4772 14.34217497390213
IRIDIUM 170             
1 43930U 19002J   26177.00089700  .00000728  00000+0  11168-3 0  9994
2 43930  86.6093 349.8567 0002520  86.2163 273.9342 14.72225522400556
IRIDIUM 167             
1 43931U 19002K   26177.01558900 -.00000009  00000+0 -10249-4 0  9993
2 43931  86.3969 349.9025 0001887  96.9247 263.2164 14.34217447390223
IRIDIUM 181             
1 56726U 23068S   26177.11927885  .00000259  00000+0  71070-4 0  9993
2 56726  86.4492  53.0565 0002409  87.8311 272.3166 14.43310602163728
IRIDIUM 177             
1 56727U 23068T   26176.90798589  .00000542  00000+0  67761-4 0  9994
2 56727  86.1972 324.6490 0002313  89.1000 271.0486 14.80225983167652
IRIDIUM 174             
1 56728U 23068U   26177.19246648  .00000780  00000+0  11986-3 0  9992
2 56728  86.6100 349.9248 0002420  80.5390 279.6101 14.72233415167342
IRIDIUM 178             
1 56729U 23068V   26176.49146706  .00000965  00000+0  12350-3 0  9990
2 56729  86.6533  21.8888 0002557  84.2279 275.9234 14.80247119167595
IRIDIUM 179             
1 56730U 23068W   26177.09452523  .00000396  00000+0  48719-4 0  9993
2 56730  86.6770  30.6433 0002392  89.1630 270.9866 14.80228420167686
